DELTA 2 R/B(1)          
1 20453U 90008B   26070.94082277  .00054994  00000+0  63753-3 0  9992
2 20453  35.6033 160.0765 0084653 279.4963  79.6213 15.56302338926480
COSMOS 2058             
1 20465U 90010A   26071.16406542  .00004870  00000+0  28704-3 0  9993
2 20465  82.4668  44.9897 0008991 336.4493  23.6324 15.11346956942616
SL-14 R/B               
1 20466U 90010B   26071.04752634  .00000457  00000+0  52505-4 0  9991
2 20466  82.4986 265.1732 0018439 293.9836  65.9448 14.83570863928839
SL-14 R/B               
1 20511U 90018B   26070.86510415  .00000590  00000+0  70923-4 0  9990
2 20511  82.5207 221.0560 0017653  85.4792 274.8438 14.82147386922900
HST                     
1 20580U 90037B   26071.16123063  .00008676  00000+0  28659-3 0  9991
2 20580  28.4722  23.1389 0001823 149.7380 210.3321 15.29527550773699
SL-16 R/B               
1 20625U 90046B   26071.03002068 -.00000183  00000+0 -69834-4 0  9996
2 20625  70.9984 292.9996 0016246 296.4241  63.5214 14.15011596848720
COSMOS 2084             
1 20663U 90055A   26071.04645391  .00002576  00000+0  19090-3 0  9995
2 20663  62.7917 327.5405 0016714 190.5750 169.5001 15.05666234936674
SL-6 R/B(2)             
1 20666U 90055D   26070.89931024  .00002340  00000+0  18378-3 0  9998
2 20666  62.7824 246.3360 0025157 347.5743  12.4732 15.03606413938523
SL-8 R/B                
1 20775U 90078B   26070.99460345  .00015814  00000+0  46583-3 0  9997
2 20775  82.9005 249.2375 0361734   6.2478 354.3067 14.89145616809640
SL-8 R/B                
1 21088U 91006B   26071.04387542  .00000079  00000+0  63491-4 0  9996
2 21088  82.9465 168.2958 0022941  31.9006 140.9010 13.77494607764393
OKEAN-3                 
1 21397U 91039A   26071.13933303  .00004227  00000+0  29685-3 0  9992
2 21397  82.5197 334.4704 0013733 328.6474  31.3933 15.04826670865406
COSMOS 2151             
1 21422U 91042A   26071.15137728  .00002239  00000+0  17708-3 0  9998
2 21422  82.4930  81.3009 0013908  56.3211 303.9337 15.00114470863568
SL-14 R/B               
1 21423U 91042B   26070.91856584  .00000580  00000+0  70352-4 0  9992
2 21423  82.4929 218.0922 0015906 230.7794 129.2009 14.81832118853405
ERS-1                   
1 21574U 91050A   26071.06070589  .00000353  00000+0  12761-3 0  9995
2 21574  98.7879  89.3548 0031752 193.3487 166.6863 14.39451323816072
ARIANE 40 R/B           
1 21610U 91050F   26071.10601735  .00000315  00000+0  10671-3 0  9990
2 21610  98.2007 123.2517 0004245  75.8736 284.2926 14.42895392819345
INTERCOSMOS 25          
1 21819U 91086A   26071.13432387  .00001961  00000+0  37731-3 0  9992
2 21819  82.6045 308.5308 1486930 111.6671 264.9080 12.12007728496984
SL-8 R/B                
1 21876U 92008B   26071.05942134  .00000012  00000+0 -32391-5 0  9993
2 21876  82.9222 266.0151 0035635 126.9170 347.0294 13.75969808709742
SL-8 R/B                
1 21938U 92020B   26071.16560109  .00000070  00000+0  57174-4 0  9994
2 21938  82.9332 151.9235 0027629 291.5911 130.7440 13.75549837701472
USA 81                  
1 21949U 92023A   26071.17368282  .00000184  00000+0  60559-4 0  9995
2 21949  85.0080 130.0083 0002397  75.9632 284.1827 14.32368870 95149
COSMOS 2219             
1 22219U 92076A   26071.13830705  .00000063  00000+0  57932-4 0  9991
2 22219  71.0639  12.9490 0018856 203.6949 156.3308 14.14093296718720
SL-16 R/B               
1 22220U 92076B   26070.75397330 -.00000153  00000+0 -52500-4 0  9990
2 22220  71.0009 184.0257 0010467  92.6138  19.5545 14.16859282722120
COSMOS 2221             
1 22236U 92080A   26071.04496160  .00002155  00000+0  18855-3 0  9992
2 22236  82.5012 276.8245 0014249 179.0275 181.0977 14.96210282781149
SL-16 R/B               
1 22285U 92093B   26071.14228527 -.00000149  00000+0 -51942-4 0  9999
2 22285  71.0242 359.1175 0006383 291.1249  68.9192 14.15447285713508
COSMOS 2228             
1 22286U 92094A   26071.12659345  .00003154  00000+0  26983-3 0  9998
2 22286  82.5159 234.9767 0016697 295.9095  64.0407 14.97204483776427
SL-16 R/B               
1 22566U 93016B   26071.11227087  .00000002  00000+0  25548-4 0  9993
2 22566  71.0078 210.0926 0011997 310.9159  49.0924 14.15309273702519
COSMOS 2242             
1 22626U 93024A   26071.04294597  .00001734  00000+0  14986-3 0  9997
2 22626  82.5156 264.4650 0015061 300.3132  59.6600 14.96558951780744
SL-16 R/B               
1 22803U 93059B   26071.15899103 -.00000080  00000+0 -15903-4 0  9994
2 22803  70.9928   5.9189 0018407 212.9942 147.0035 14.17231315679889
ARIANE 40 R/B           
1 22830U 93061H   26071.14264009  .00000249  00000+0  10704-3 0  9995
2 22830  98.4910 139.9818 0009573 276.9829  83.0267 14.32862525694456
COSMOS 2278             
1 23087U 94023A   26070.71941900  .00000032  00000+0  41154-4 0  9997
2 23087  71.0553 170.8514 0008181   9.1686 350.9585 14.14379421645092
SL-16 R/B               
1 23088U 94023B   26071.18912279 -.00000220  00000+0 -88961-4 0  9995
2 23088  70.9985  65.6373 0005696 283.1836  76.8650 14.15010986646449
SL-16 R/B               
1 23343U 94074B   26071.09327159  .00000521  00000+0  76484-4 0  9991
2 23343  97.7107 101.8136 0005986 201.6293 220.7848 14.79410841687606
SL-16 R/B               
1 23405U 94077B   26071.16978169  .00000105  00000+0  78284-4 0  9992
2 23405  70.9853 347.2721 0002954 208.8129 151.2831 14.15561637616580
ARIANE 40+ R/B          
1 23561U 95021B   26071.17840723  .00000356  00000+0  12742-3 0  9994
2 23561  98.4492 142.6271 0007714 129.9656 284.6570 14.39774598619606
SL-16 R/B               
1 23705U 95058B   26070.61155650  .00000333  00000+0  19437-3 0  9993
2 23705  71.0223 176.2205 0010702 122.2935 237.9226 14.15496639568122
SL-16 R/B               
1 24298U 96051B   26071.00735344  .00000079  00000+0  69302-4 0  9997
2 24298  70.7604 170.3334 0014880 144.5023 215.7090 14.12416278521976
ORBVIEW 2 (SEASTAR)     
1 24883U 97037A   26071.06656798  .00000330  00000+0  13096-3 0  9991
2 24883  98.8571 235.4414 0003039  67.2308 292.9197 14.35496758508812
SL-16 R/B               
1 25400U 98043G   26071.11715142  .00000075  00000+0  50452-4 0  9994
2 25400  98.8256  24.4977 0010095  13.7029 346.4423 14.26050384439332
SL-16 R/B               
1 25407U 98045B   26071.04533856  .00000273  00000+0  16173-3 0  9996
2 25407  71.0120 176.6203 0006893   4.6284 355.4902 14.16191171427436
ISS (ZARYA)             
1 25544U 98067A   26071.15917149  .00009166  00000+0  17667-3 0  9994
2 25544  51.6325  60.1463 0007984 183.4136 176.6799 15.48595269556711
CZ-4B R/B               
1 25732U 99025C   26071.13515922  .00000043  00000+0  41837-4 0  9991
2 25732  98.6622 115.3587 0036616 339.4833  84.3041 14.18265816388516
OKEAN-O                 
1 25860U 99039A   26071.15292594  .00000839  00000+0  11691-3 0  9994
2 25860  97.9437 131.0194 0001170  70.3123 289.8215 14.80339931434755
SL-16 R/B               
1 25861U 99039B   26071.13046899  .00000627  00000+0  86309-4 0  9992
2 25861  97.9962 130.2237 0013577 247.2864 112.6914 14.81735120437224
DELTA 2 R/B             
1 25876U 99041E   26070.91950208  .00001275  00000+0  24346-3 0  9996
2 25876  51.7626 292.3741 0502434 355.0068   4.5958 14.11844613363343
HELIOS 1B               
1 25977U 99064A   26071.00064504  .00002159  00000+0  24331-3 0  9995
2 25977  98.1687 333.3117 0002446  72.0340 288.1142 14.87709258685606
TERRA                   
1 25994U 99068A   26071.18196441  .00000548  00000+0  12075-3 0  9995
2 25994  97.9589 124.5214 0002849 145.8395 281.6590 14.61017853395447
SL-16 R/B               
1 26070U 00006B   26071.20266183 -.00000168  00000+0 -61272-4 0  9993
2 26070  71.0006  92.5532 0016631 186.5264 173.5646 14.15825416348910
TITAN 4B R/B            
1 26474U 00047B   26071.14807369  .00005228  00000+0  32713-3 0  9993
2 26474  67.9902  33.5971 0038661  32.5259 327.8260 15.09590605393289
ENVISAT                 
1 27386U 02009A   26071.10546161  .00000147  00000+0  61609-4 0  9994
2 27386  98.3731  24.6453 0001308  83.2940 287.7334 14.39037883259524
IDEFIX & ARIANE 42P R/B 
1 27422U 02021B   26070.80322123  .00000338  00000+0  14480-3 0  9991
2 27422  98.5869   9.3842 0011697 175.9688 184.1592 14.31027862244327
AQUA                    
1 27424U 02022A   26071.21612451  .00001329  00000+0  27507-3 0  9991
2 27424  98.4178  38.6271 0000573  90.2368 326.9715 14.61984310269106
CZ-4B R/B               
1 27432U 02024C   26071.12256655  .00000045  00000+0  45916-4 0  9991
2 27432  98.8834 124.5169 0050364  17.3131  36.9194 14.14548047229588
MIDORI II (ADEOS-II)    
1 27597U 02056A   26070.90384748  .00000364  00000+0  16071-3 0  9991
2 27597  98.7769  29.3966 0001508  40.3821 319.7472 14.29287029210612
H-2A R/B                
1 27601U 02056E   26070.86961987  .00000303  00000+0  12062-3 0  9997
2 27601  98.3205  31.1522 0070632 154.2148 261.2108 14.33762249214426
CZ-4B R/B               
1 28059U 03049C   26070.99669750  .00000431  00000+0  11035-3 0  9996
2 28059  98.6879  65.9919 0047334 223.7086 136.0358 14.55022487186932
CZ-2C R/B               
1 28222U 04012C   26071.16728482  .00060823  00000+0  61962-3 0  9992
2 28222  97.7224 136.6945 0012921 299.2495  60.7471 15.64833079204667
SL-16 R/B               
1 28353U 04021B   26070.86123671 -.00000265  00000+0 -11320-3 0  9991
2 28353  70.9996 227.9350 0004175   6.1397 353.9776 14.14597110123148
CZ-4B R/B               
1 28415U 04035C   26071.06875813  .00007850  00000+0  27661-3 0  9990
2 28415  97.3502 105.2830 0030697 322.6758  37.2349 15.29108678180278
CZ-2C R/B               
1 28480U 04046B   26070.72937510  .00000128  00000+0  62460-4 0  9997
2 28480  98.1980 345.5864 0139979 148.4396 212.5277 14.26992768108792
ARIANE 5 R/B            
1 28499U 04049H   26071.19264994  .00000974  00000+0  11379-3 0  9992
2 28499  98.2631 239.7433 0083763 343.7925  16.0612 14.85271369146164
